{
  "type": "FeatureCollection",
  "name": "Core WECA inter-urban active travel network",
  "metadata": {
    "created_at": "2026-05-21T12:06:46.219Z",
    "status": "satn-style-stage-1-prototype",
    "network_scope": "WECA plus strategic external gateways",
    "methodology_notes": "SATN-style Stage 1 network: prioritised inter-urban links between bounded urban areas and strategic external gateways. Geometry follows named A-road corridors with coarse intermediate control points where possible, but remains corridor/desire-line evidence rather than design alignment."
  },
  "features": [
    {
      "type": "Feature",
      "id": "core-bristol-bath-a4",
      "geometry": {
        "type": "LineString",
        "coordinates": [
          [
            -2.5879,
            51.4545
          ],
          [
            -2.511,
            51.449
          ],
          [
            -2.4977,
            51.4311
          ],
          [
            -2.4585,
            51.4072
          ],
          [
            -2.3905,
            51.395
          ],
          [
            -2.3591,
            51.3811
          ]
        ]
      },
      "properties": {
        "strategic_network_feature_type": "core-interurban-link",
        "corridor_name": "A4 Bristol to Bath and Batheaston",
        "from_node": "Bristol",
        "to_node": "Bath and Batheaston",
        "corridor_ref": "A4",
        "core_network_priority": "P1",
        "satn_stage": "stage-1-prioritised-corridor",
        "alignment_status": "road-corridor-proxy",
        "default_treatment_intent": "make-good-a-road-active-travel-corridor",
        "urban_complexity_handling": "Treat bounded urban areas as LCWIP/interface zones; do not solve detailed urban alignments in this layer.",
        "quiet_route_policy": "Quiet routes may provide reach or parallel options but do not replace the direct inter-urban A-road corridor unless the route audit shows the A-road is not viable.",
        "personal_safety_policy": "Direct, legible, overlooked corridors are preferred where a suitable A-road-adjacent facility can be delivered.",
        "source_layer": "weca-strategic-network-synthesis",
        "status": "prototype-core-network",
        "provenance_notes": "Prototype link selected from WECA urban areas, major neighbouring gateways and named A-road corridors.",
        "uncertainty_notes": "Requires route audit, highway boundary review, traffic-speed context and land/constraint checks before any design conclusion.",
        "via_nodes": [
          "Keynsham",
          "Saltford"
        ]
      }
    },
    {
      "type": "Feature",
      "id": "core-bath-radstock-msn-a367",
      "geometry": {
        "type": "LineString",
        "coordinates": [
          [
            -2.3591,
            51.3811
          ],
          [
            -2.3776,
            51.3538
          ],
          [
            -2.4322,
            51.3408
          ],
          [
            -2.4519,
            51.291
          ],
          [
            -2.4846,
            51.2855
          ]
        ]
      },
      "properties": {
        "strategic_network_feature_type": "core-interurban-link",
        "corridor_name": "A367 Bath and Batheaston to Midsomer Norton",
        "from_node": "Bath and Batheaston",
        "to_node": "Midsomer Norton",
        "corridor_ref": "A367",
        "core_network_priority": "P1",
        "satn_stage": "stage-1-prioritised-corridor",
        "alignment_status": "road-corridor-proxy",
        "default_treatment_intent": "make-good-a-road-active-travel-corridor",
        "urban_complexity_handling": "Treat bounded urban areas as LCWIP/interface zones; do not solve detailed urban alignments in this layer.",
        "quiet_route_policy": "Quiet routes may provide reach or parallel options but do not replace the direct inter-urban A-road corridor unless the route audit shows the A-road is not viable.",
        "personal_safety_policy": "Direct, legible, overlooked corridors are preferred where a suitable A-road-adjacent facility can be delivered.",
        "source_layer": "weca-strategic-network-synthesis",
        "status": "prototype-core-network",
        "provenance_notes": "Prototype link selected from WECA urban areas, major neighbouring gateways and named A-road corridors.",
        "uncertainty_notes": "Requires route audit, highway boundary review, traffic-speed context and land/constraint checks before any design conclusion.",
        "via_nodes": [
          "Odd Down",
          "Tunley",
          "Radstock"
        ]
      }
    },
    {
      "type": "Feature",
      "id": "core-bristol-msn-a37",
      "geometry": {
        "type": "LineString",
        "coordinates": [
          [
            -2.5879,
            51.4545
          ],
          [
            -2.5602,
            51.4066
          ],
          [
            -2.5484,
            51.3718
          ],
          [
            -2.5307,
            51.297
          ],
          [
            -2.4846,
            51.2855
          ]
        ]
      },
      "properties": {
        "strategic_network_feature_type": "core-interurban-link",
        "corridor_name": "A37 Bristol to Midsomer Norton",
        "from_node": "Bristol",
        "to_node": "Midsomer Norton",
        "corridor_ref": "A37",
        "core_network_priority": "P1",
        "satn_stage": "stage-1-prioritised-corridor",
        "alignment_status": "road-corridor-proxy",
        "default_treatment_intent": "make-good-a-road-active-travel-corridor",
        "urban_complexity_handling": "Treat bounded urban areas as LCWIP/interface zones; do not solve detailed urban alignments in this layer.",
        "quiet_route_policy": "Quiet routes may provide reach or parallel options but do not replace the direct inter-urban A-road corridor unless the route audit shows the A-road is not viable.",
        "personal_safety_policy": "Direct, legible, overlooked corridors are preferred where a suitable A-road-adjacent facility can be delivered.",
        "source_layer": "weca-strategic-network-synthesis",
        "status": "prototype-core-network",
        "provenance_notes": "Prototype link selected from WECA urban areas, major neighbouring gateways and named A-road corridors.",
        "uncertainty_notes": "Requires route audit, highway boundary review, traffic-speed context and land/constraint checks before any design conclusion.",
        "via_nodes": [
          "Whitchurch Village",
          "Pensford",
          "Farrington Gurney"
        ]
      }
    },
    {
      "type": "Feature",
      "id": "core-bristol-yate-a432",
      "geometry": {
        "type": "LineString",
        "coordinates": [
          [
            -2.5879,
            51.4545
          ],
          [
            -2.5266,
            51.4787
          ],
          [
            -2.4774,
            51.4932
          ],
          [
            -2.416,
            51.541
          ]
        ]
      },
      "properties": {
        "strategic_network_feature_type": "core-interurban-link",
        "corridor_name": "A432 Bristol to Yate",
        "from_node": "Bristol",
        "to_node": "Yate",
        "corridor_ref": "A432",
        "core_network_priority": "P1",
        "satn_stage": "stage-1-prioritised-corridor",
        "alignment_status": "road-corridor-proxy",
        "default_treatment_intent": "make-good-a-road-active-travel-corridor",
        "urban_complexity_handling": "Treat bounded urban areas as LCWIP/interface zones; do not solve detailed urban alignments in this layer.",
        "quiet_route_policy": "Quiet routes may provide reach or parallel options but do not replace the direct inter-urban A-road corridor unless the route audit shows the A-road is not viable.",
        "personal_safety_policy": "Direct, legible, overlooked corridors are preferred where a suitable A-road-adjacent facility can be delivered.",
        "source_layer": "weca-strategic-network-synthesis",
        "status": "prototype-core-network",
        "provenance_notes": "Prototype link selected from WECA urban areas, major neighbouring gateways and named A-road corridors.",
        "uncertainty_notes": "Requires route audit, highway boundary review, traffic-speed context and land/constraint checks before any design conclusion.",
        "via_nodes": [
          "Fishponds",
          "Emersons Green"
        ]
      }
    },
    {
      "type": "Feature",
      "id": "core-yate-chipping-sodbury-a432",
      "geometry": {
        "type": "LineString",
        "coordinates": [
          [
            -2.416,
            51.541
          ],
          [
            -2.393,
            51.538
          ]
        ]
      },
      "properties": {
        "strategic_network_feature_type": "core-interurban-link",
        "corridor_name": "A432 Yate to Chipping Sodbury",
        "from_node": "Yate",
        "to_node": "Chipping Sodbury",
        "corridor_ref": "A432",
        "core_network_priority": "P1",
        "satn_stage": "stage-1-prioritised-corridor",
        "alignment_status": "road-corridor-proxy",
        "default_treatment_intent": "make-good-a-road-active-travel-corridor",
        "urban_complexity_handling": "Treat bounded urban areas as LCWIP/interface zones; do not solve detailed urban alignments in this layer.",
        "quiet_route_policy": "Quiet routes may provide reach or parallel options but do not replace the direct inter-urban A-road corridor unless the route audit shows the A-road is not viable.",
        "personal_safety_policy": "Direct, legible, overlooked corridors are preferred where a suitable A-road-adjacent facility can be delivered.",
        "source_layer": "weca-strategic-network-synthesis",
        "status": "prototype-core-network",
        "provenance_notes": "Prototype link selected from WECA urban areas, major neighbouring gateways and named A-road corridors.",
        "uncertainty_notes": "Requires route audit, highway boundary review, traffic-speed context and land/constraint checks before any design conclusion."
      }
    },
    {
      "type": "Feature",
      "id": "core-bristol-thornbury-a38",
      "geometry": {
        "type": "LineString",
        "coordinates": [
          [
            -2.5879,
            51.4545
          ],
          [
            -2.5761,
            51.5107
          ],
          [
            -2.5711,
            51.5541
          ],
          [
            -2.521,
            51.608
          ]
        ]
      },
      "properties": {
        "strategic_network_feature_type": "core-interurban-link",
        "corridor_name": "A38 Bristol to Thornbury",
        "from_node": "Bristol",
        "to_node": "Thornbury",
        "corridor_ref": "A38",
        "core_network_priority": "P1",
        "satn_stage": "stage-1-prioritised-corridor",
        "alignment_status": "road-corridor-proxy",
        "default_treatment_intent": "make-good-a-road-active-travel-corridor",
        "urban_complexity_handling": "Treat bounded urban areas as LCWIP/interface zones; do not solve detailed urban alignments in this layer.",
        "quiet_route_policy": "Quiet routes may provide reach or parallel options but do not replace the direct inter-urban A-road corridor unless the route audit shows the A-road is not viable.",
        "personal_safety_policy": "Direct, legible, overlooked corridors are preferred where a suitable A-road-adjacent facility can be delivered.",
        "source_layer": "weca-strategic-network-synthesis",
        "status": "prototype-core-network",
        "provenance_notes": "Prototype link selected from WECA urban areas, major neighbouring gateways and named A-road corridors.",
        "uncertainty_notes": "Requires route audit, highway boundary review, traffic-speed context and land/constraint checks before any design conclusion.",
        "via_nodes": [
          "Filton",
          "Almondsbury"
        ]
      }
    },
    {
      "type": "Feature",
      "id": "core-bristol-portishead-a369",
      "geometry": {
        "type": "LineString",
        "coordinates": [
          [
            -2.5879,
            51.4545
          ],
          [
            -2.6678,
            51.461
          ],
          [
            -2.6828,
            51.481
          ],
          [
            -2.769,
            51.485
          ]
        ]
      },
      "properties": {
        "strategic_network_feature_type": "core-interurban-link",
        "corridor_name": "A369 Bristol to Portishead",
        "from_node": "Bristol",
        "to_node": "Portishead",
        "corridor_ref": "A369",
        "core_network_priority": "P1",
        "satn_stage": "stage-1-prioritised-corridor",
        "alignment_status": "road-corridor-proxy",
        "default_treatment_intent": "make-good-a-road-active-travel-corridor",
        "urban_complexity_handling": "Treat bounded urban areas as LCWIP/interface zones; do not solve detailed urban alignments in this layer.",
        "quiet_route_policy": "Quiet routes may provide reach or parallel options but do not replace the direct inter-urban A-road corridor unless the route audit shows the A-road is not viable.",
        "personal_safety_policy": "Direct, legible, overlooked corridors are preferred where a suitable A-road-adjacent facility can be delivered.",
        "source_layer": "weca-strategic-network-synthesis",
        "status": "prototype-core-network",
        "provenance_notes": "Prototype link selected from WECA urban areas, major neighbouring gateways and named A-road corridors.",
        "uncertainty_notes": "Requires route audit, highway boundary review, traffic-speed context and land/constraint checks before any design conclusion.",
        "via_nodes": [
          "Abbots Leigh",
          "Pill"
        ]
      }
    },
    {
      "type": "Feature",
      "id": "core-bristol-weston-a370",
      "geometry": {
        "type": "LineString",
        "coordinates": [
          [
            -2.5879,
            51.4545
          ],
          [
            -2.6608,
            51.4298
          ],
          [
            -2.7381,
            51.4144
          ],
          [
            -2.8235,
            51.3885
          ],
          [
            -2.977,
            51.346
          ]
        ]
      },
      "properties": {
        "strategic_network_feature_type": "core-interurban-link",
        "corridor_name": "A370 Bristol to Weston-super-Mare",
        "from_node": "Bristol",
        "to_node": "Weston-super-Mare",
        "corridor_ref": "A370",
        "core_network_priority": "P1",
        "satn_stage": "stage-1-prioritised-corridor",
        "alignment_status": "road-corridor-proxy",
        "default_treatment_intent": "make-good-a-road-active-travel-corridor",
        "urban_complexity_handling": "Treat bounded urban areas as LCWIP/interface zones; do not solve detailed urban alignments in this layer.",
        "quiet_route_policy": "Quiet routes may provide reach or parallel options but do not replace the direct inter-urban A-road corridor unless the route audit shows the A-road is not viable.",
        "personal_safety_policy": "Direct, legible, overlooked corridors are preferred where a suitable A-road-adjacent facility can be delivered.",
        "source_layer": "weca-strategic-network-synthesis",
        "status": "prototype-core-network",
        "provenance_notes": "Prototype link selected from WECA urban areas, major neighbouring gateways and named A-road corridors.",
        "uncertainty_notes": "Requires route audit, highway boundary review, traffic-speed context and land/constraint checks before any design conclusion.",
        "via_nodes": [
          "Long Ashton",
          "Backwell",
          "Yatton"
        ]
      }
    },
    {
      "type": "Feature",
      "id": "core-bristol-airport-weston-a38",
      "geometry": {
        "type": "LineString",
        "coordinates": [
          [
            -2.5879,
            51.4545
          ],
          [
            -2.6608,
            51.4298
          ],
          [
            -2.7171,
            51.3264
          ],
          [
            -2.8029,
            51.3333
          ],
          [
            -2.8671,
            51.3281
          ],
          [
            -2.977,
            51.346
          ]
        ]
      },
      "properties": {
        "strategic_network_feature_type": "core-interurban-link",
        "corridor_name": "A38 Bristol to Weston-super-Mare",
        "from_node": "Bristol",
        "to_node": "Weston-super-Mare",
        "corridor_ref": "A38",
        "core_network_priority": "P1",
        "satn_stage": "stage-1-prioritised-corridor",
        "alignment_status": "road-corridor-proxy",
        "default_treatment_intent": "make-good-a-road-active-travel-corridor",
        "urban_complexity_handling": "Treat bounded urban areas as LCWIP/interface zones; do not solve detailed urban alignments in this layer.",
        "quiet_route_policy": "Quiet routes may provide reach or parallel options but do not replace the direct inter-urban A-road corridor unless the route audit shows the A-road is not viable.",
        "personal_safety_policy": "Direct, legible, overlooked corridors are preferred where a suitable A-road-adjacent facility can be delivered.",
        "source_layer": "weca-strategic-network-synthesis",
        "status": "prototype-core-network",
        "provenance_notes": "Prototype link selected from WECA urban areas, major neighbouring gateways and named A-road corridors.",
        "uncertainty_notes": "Requires route audit, highway boundary review, traffic-speed context and land/constraint checks before any design conclusion.",
        "via_nodes": [
          "Bristol Airport",
          "Churchill",
          "Banwell"
        ]
      }
    },
    {
      "type": "Feature",
      "id": "core-clevedon-nailsea-bristol",
      "geometry": {
        "type": "LineString",
        "coordinates": [
          [
            -2.857,
            51.439
          ],
          [
            -2.7265,
            51.4425
          ],
          [
            -2.7381,
            51.4144
          ],
          [
            -2.6608,
            51.4298
          ],
          [
            -2.5879,
            51.4545
          ]
        ]
      },
      "properties": {
        "strategic_network_feature_type": "core-interurban-link",
        "corridor_name": "B3130/A370 Clevedon to Bristol",
        "from_node": "Clevedon",
        "to_node": "Bristol",
        "corridor_ref": "B3130/A370",
        "core_network_priority": "P2",
        "satn_stage": "stage-1-prioritised-corridor",
        "alignment_status": "road-corridor-proxy",
        "default_treatment_intent": "make-good-a-road-active-travel-corridor",
        "urban_complexity_handling": "Treat bounded urban areas as LCWIP/interface zones; do not solve detailed urban alignments in this layer.",
        "quiet_route_policy": "Quiet routes may provide reach or parallel options but do not replace the direct inter-urban A-road corridor unless the route audit shows the A-road is not viable.",
        "personal_safety_policy": "Direct, legible, overlooked corridors are preferred where a suitable A-road-adjacent facility can be delivered.",
        "source_layer": "weca-strategic-network-synthesis",
        "status": "prototype-core-network",
        "provenance_notes": "Prototype link selected from WECA urban areas, major neighbouring gateways and named A-road corridors.",
        "uncertainty_notes": "Requires route audit, highway boundary review, traffic-speed context and land/constraint checks before any design conclusion.",
        "via_nodes": [
          "Wraxall",
          "Nailsea",
          "Long Ashton"
        ]
      }
    },
    {
      "type": "Feature",
      "id": "core-portishead-clevedon-weston",
      "geometry": {
        "type": "LineString",
        "coordinates": [
          [
            -2.769,
            51.485
          ],
          [
            -2.8034,
            51.4469
          ],
          [
            -2.857,
            51.439
          ],
          [
            -2.8235,
            51.3885
          ],
          [
            -2.977,
            51.346
          ]
        ]
      },
      "properties": {
        "strategic_network_feature_type": "core-interurban-link",
        "corridor_name": "B3124/A370 Portishead to Weston-super-Mare",
        "from_node": "Portishead",
        "to_node": "Weston-super-Mare",
        "corridor_ref": "B3124/A370",
        "core_network_priority": "P2",
        "satn_stage": "stage-1-prioritised-corridor",
        "alignment_status": "road-corridor-proxy",
        "default_treatment_intent": "make-good-a-road-active-travel-corridor",
        "urban_complexity_handling": "Treat bounded urban areas as LCWIP/interface zones; do not solve detailed urban alignments in this layer.",
        "quiet_route_policy": "Quiet routes may provide reach or parallel options but do not replace the direct inter-urban A-road corridor unless the route audit shows the A-road is not viable.",
        "personal_safety_policy": "Direct, legible, overlooked corridors are preferred where a suitable A-road-adjacent facility can be delivered.",
        "source_layer": "weca-strategic-network-synthesis",
        "status": "prototype-core-network",
        "provenance_notes": "Prototype link selected from WECA urban areas, major neighbouring gateways and named A-road corridors.",
        "uncertainty_notes": "Requires route audit, highway boundary review, traffic-speed context and land/constraint checks before any design conclusion.",
        "via_nodes": [
          "Tickenham",
          "Clevedon",
          "Yatton"
        ]
      }
    },
    {
      "type": "Feature",
      "id": "core-keynsham-somer-valley-a39-a37",
      "geometry": {
        "type": "LineString",
        "coordinates": [
          [
            -2.4977,
            51.4311
          ],
          [
            -2.5484,
            51.3718
          ],
          [
            -2.543,
            51.3201
          ],
          [
            -2.4846,
            51.2855
          ]
        ]
      },
      "properties": {
        "strategic_network_feature_type": "core-interurban-link",
        "corridor_name": "A39/A37 Keynsham to Midsomer Norton",
        "from_node": "Keynsham",
        "to_node": "Midsomer Norton",
        "corridor_ref": "A39/A37",
        "core_network_priority": "P2",
        "satn_stage": "stage-1-prioritised-corridor",
        "alignment_status": "road-corridor-proxy",
        "default_treatment_intent": "make-good-a-road-active-travel-corridor",
        "urban_complexity_handling": "Treat bounded urban areas as LCWIP/interface zones; do not solve detailed urban alignments in this layer.",
        "quiet_route_policy": "Quiet routes may provide reach or parallel options but do not replace the direct inter-urban A-road corridor unless the route audit shows the A-road is not viable.",
        "personal_safety_policy": "Direct, legible, overlooked corridors are preferred where a suitable A-road-adjacent facility can be delivered.",
        "source_layer": "weca-strategic-network-synthesis",
        "status": "prototype-core-network",
        "provenance_notes": "Prototype link selected from WECA urban areas, major neighbouring gateways and named A-road corridors.",
        "uncertainty_notes": "Requires route audit, highway boundary review, traffic-speed context and land/constraint checks before any design conclusion.",
        "via_nodes": [
          "Pensford",
          "Temple Cloud"
        ]
      }
    },
    {
      "type": "Feature",
      "id": "gateway-msn-frome-a362",
      "geometry": {
        "type": "LineString",
        "coordinates": [
          [
            -2.4846,
            51.2855
          ],
          [
            -2.4381,
            51.2698
          ],
          [
            -2.3215,
            51.2308
          ]
        ]
      },
      "properties": {
        "strategic_network_feature_type": "core-interurban-link",
        "corridor_name": "A362 Midsomer Norton to Frome",
        "from_node": "Midsomer Norton",
        "to_node": "Frome",
        "corridor_ref": "A362",
        "core_network_priority": "P2",
        "satn_stage": "stage-1-prioritised-corridor",
        "alignment_status": "road-corridor-proxy",
        "default_treatment_intent": "make-good-a-road-active-travel-corridor",
        "urban_complexity_handling": "Treat bounded urban areas as LCWIP/interface zones; do not solve detailed urban alignments in this layer.",
        "quiet_route_policy": "Quiet routes may provide reach or parallel options but do not replace the direct inter-urban A-road corridor unless the route audit shows the A-road is not viable.",
        "personal_safety_policy": "Direct, legible, overlooked corridors are preferred where a suitable A-road-adjacent facility can be delivered.",
        "source_layer": "weca-strategic-network-synthesis",
        "status": "prototype-core-network",
        "provenance_notes": "Prototype link selected from WECA urban areas, major neighbouring gateways and named A-road corridors.",
        "uncertainty_notes": "Requires route audit, highway boundary review, traffic-speed context and land/constraint checks before any design conclusion.",
        "external_gateway": "Frome"
      }
    },
    {
      "type": "Feature",
      "id": "gateway-bath-chippenham-a4",
      "geometry": {
        "type": "LineString",
        "coordinates": [
          [
            -2.3591,
            51.3811
          ],
          [
            -2.3009,
            51.3976
          ],
          [
            -2.214,
            51.417
          ],
          [
            -2.115,
            51.46
          ]
        ]
      },
      "properties": {
        "strategic_network_feature_type": "core-interurban-link",
        "corridor_name": "A4 Bath and Batheaston to Chippenham/Corsham",
        "from_node": "Bath and Batheaston",
        "to_node": "Chippenham/Corsham",
        "corridor_ref": "A4",
        "core_network_priority": "P2",
        "satn_stage": "stage-1-prioritised-corridor",
        "alignment_status": "road-corridor-proxy",
        "default_treatment_intent": "make-good-a-road-active-travel-corridor",
        "urban_complexity_handling": "Treat bounded urban areas as LCWIP/interface zones; do not solve detailed urban alignments in this layer.",
        "quiet_route_policy": "Quiet routes may provide reach or parallel options but do not replace the direct inter-urban A-road corridor unless the route audit shows the A-road is not viable.",
        "personal_safety_policy": "Direct, legible, overlooked corridors are preferred where a suitable A-road-adjacent facility can be delivered.",
        "source_layer": "weca-strategic-network-synthesis",
        "status": "prototype-core-network",
        "provenance_notes": "Prototype link selected from WECA urban areas, major neighbouring gateways and named A-road corridors.",
        "uncertainty_notes": "Requires route audit, highway boundary review, traffic-speed context and land/constraint checks before any design conclusion.",
        "external_gateway": "Chippenham/Corsham"
      }
    },
    {
      "type": "Feature",
      "id": "gateway-bath-trowbridge-a363",
      "geometry": {
        "type": "LineString",
        "coordinates": [
          [
            -2.3591,
            51.3811
          ],
          [
            -2.3278,
            51.3756
          ],
          [
            -2.252,
            51.346
          ],
          [
            -2.208,
            51.319
          ]
        ]
      },
      "properties": {
        "strategic_network_feature_type": "core-interurban-link",
        "corridor_name": "A363 Bath and Batheaston to Bradford-on-Avon/Trowbridge",
        "from_node": "Bath and Batheaston",
        "to_node": "Bradford-on-Avon/Trowbridge",
        "corridor_ref": "A363",
        "core_network_priority": "P2",
        "satn_stage": "stage-1-prioritised-corridor",
        "alignment_status": "road-corridor-proxy",
        "default_treatment_intent": "make-good-a-road-active-travel-corridor",
        "urban_complexity_handling": "Treat bounded urban areas as LCWIP/interface zones; do not solve detailed urban alignments in this layer.",
        "quiet_route_policy": "Quiet routes may provide reach or parallel options but do not replace the direct inter-urban A-road corridor unless the route audit shows the A-road is not viable.",
        "personal_safety_policy": "Direct, legible, overlooked corridors are preferred where a suitable A-road-adjacent facility can be delivered.",
        "source_layer": "weca-strategic-network-synthesis",
        "status": "prototype-core-network",
        "provenance_notes": "Prototype link selected from WECA urban areas, major neighbouring gateways and named A-road corridors.",
        "uncertainty_notes": "Requires route audit, highway boundary review, traffic-speed context and land/constraint checks before any design conclusion.",
        "external_gateway": "Bradford-on-Avon/Trowbridge"
      }
    },
    {
      "type": "Feature",
      "id": "gateway-bath-wells-a39",
      "geometry": {
        "type": "LineString",
        "coordinates": [
          [
            -2.3591,
            51.3811
          ],
          [
            -2.4415,
            51.3829
          ],
          [
            -2.543,
            51.3201
          ],
          [
            -2.5797,
            51.2762
          ],
          [
            -2.648,
            51.209
          ]
        ]
      },
      "properties": {
        "strategic_network_feature_type": "core-interurban-link",
        "corridor_name": "A39 Bath and Batheaston to Wells",
        "from_node": "Bath and Batheaston",
        "to_node": "Wells",
        "corridor_ref": "A39",
        "core_network_priority": "P2",
        "satn_stage": "stage-1-prioritised-corridor",
        "alignment_status": "road-corridor-proxy",
        "default_treatment_intent": "make-good-a-road-active-travel-corridor",
        "urban_complexity_handling": "Treat bounded urban areas as LCWIP/interface zones; do not solve detailed urban alignments in this layer.",
        "quiet_route_policy": "Quiet routes may provide reach or parallel options but do not replace the direct inter-urban A-road corridor unless the route audit shows the A-road is not viable.",
        "personal_safety_policy": "Direct, legible, overlooked corridors are preferred where a suitable A-road-adjacent facility can be delivered.",
        "source_layer": "weca-strategic-network-synthesis",
        "status": "prototype-core-network",
        "provenance_notes": "Prototype link selected from WECA urban areas, major neighbouring gateways and named A-road corridors.",
        "uncertainty_notes": "Requires route audit, highway boundary review, traffic-speed context and land/constraint checks before any design conclusion.",
        "external_gateway": "Wells"
      }
    },
    {
      "type": "Feature",
      "id": "gateway-weston-wells-a371",
      "geometry": {
        "type": "LineString",
        "coordinates": [
          [
            -2.977,
            51.346
          ],
          [
            -2.8671,
            51.3281
          ],
          [
            -2.8029,
            51.3333
          ],
          [
            -2.7171,
            51.3264
          ],
          [
            -2.648,
            51.209
          ]
        ]
      },
      "properties": {
        "strategic_network_feature_type": "core-interurban-link",
        "corridor_name": "A371 Weston-super-Mare to Wells",
        "from_node": "Weston-super-Mare",
        "to_node": "Wells",
        "corridor_ref": "A371",
        "core_network_priority": "P2",
        "satn_stage": "stage-1-prioritised-corridor",
        "alignment_status": "road-corridor-proxy",
        "default_treatment_intent": "make-good-a-road-active-travel-corridor",
        "urban_complexity_handling": "Treat bounded urban areas as LCWIP/interface zones; do not solve detailed urban alignments in this layer.",
        "quiet_route_policy": "Quiet routes may provide reach or parallel options but do not replace the direct inter-urban A-road corridor unless the route audit shows the A-road is not viable.",
        "personal_safety_policy": "Direct, legible, overlooked corridors are preferred where a suitable A-road-adjacent facility can be delivered.",
        "source_layer": "weca-strategic-network-synthesis",
        "status": "prototype-core-network",
        "provenance_notes": "Prototype link selected from WECA urban areas, major neighbouring gateways and named A-road corridors.",
        "uncertainty_notes": "Requires route audit, highway boundary review, traffic-speed context and land/constraint checks before any design conclusion.",
        "external_gateway": "Wells"
      }
    },
    {
      "type": "Feature",
      "id": "gateway-bath-warminster-a36",
      "geometry": {
        "type": "LineString",
        "coordinates": [
          [
            -2.3591,
            51.3811
          ],
          [
            -2.3034,
            51.3427
          ],
          [
            -2.252,
            51.346
          ],
          [
            -2.188,
            51.204
          ]
        ]
      },
      "properties": {
        "strategic_network_feature_type": "core-interurban-link",
        "corridor_name": "A36 Bath and Batheaston to Warminster",
        "from_node": "Bath and Batheaston",
        "to_node": "Warminster",
        "corridor_ref": "A36",
        "core_network_priority": "P3",
        "satn_stage": "stage-1-prioritised-corridor",
        "alignment_status": "road-corridor-proxy",
        "default_treatment_intent": "make-good-a-road-active-travel-corridor",
        "urban_complexity_handling": "Treat bounded urban areas as LCWIP/interface zones; do not solve detailed urban alignments in this layer.",
        "quiet_route_policy": "Quiet routes may provide reach or parallel options but do not replace the direct inter-urban A-road corridor unless the route audit shows the A-road is not viable.",
        "personal_safety_policy": "Direct, legible, overlooked corridors are preferred where a suitable A-road-adjacent facility can be delivered.",
        "source_layer": "weca-strategic-network-synthesis",
        "status": "prototype-core-network",
        "provenance_notes": "Prototype link selected from WECA urban areas, major neighbouring gateways and named A-road corridors.",
        "uncertainty_notes": "Requires route audit, highway boundary review, traffic-speed context and land/constraint checks before any design conclusion.",
        "external_gateway": "Warminster"
      }
    },
    {
      "type": "Feature",
      "id": "quiet-chew-valley-reach",
      "geometry": {
        "type": "LineString",
        "coordinates": [
          [
            -2.5484,
            51.3718
          ],
          [
            -2.5753,
            51.3676
          ],
          [
            -2.6108,
            51.3676
          ],
          [
            -2.6306,
            51.3533
          ],
          [
            -2.5945,
            51.3355
          ]
        ]
      },
      "properties": {
        "strategic_network_feature_type": "quiet-lane-opportunity",
        "corridor_name": "Chew Valley quiet-lane reach",
        "treatment_intent": "20mph-quiet-lane-priority",
        "satn_stage": "stage-1-supporting-opportunity",
        "source_layer": "weca-strategic-network-synthesis",
        "status": "prototype-supporting-network",
        "provenance_notes": "Prototype supporting corridor for village reach, parallel greenway logic, walking, wheeling, cycling and equestrian access.",
        "uncertainty_notes": "Not a substitute for the core inter-urban route unless audited as a viable, attractive and safe strategic alternative.",
        "feeder_to_core_link_ids": [
          "core-bristol-msn-a37",
          "core-keynsham-somer-valley-a39-a37"
        ]
      }
    },
    {
      "type": "Feature",
      "id": "quiet-cam-brook-reach",
      "geometry": {
        "type": "LineString",
        "coordinates": [
          [
            -2.4519,
            51.291
          ],
          [
            -2.4537,
            51.316
          ],
          [
            -2.4765,
            51.3256
          ],
          [
            -2.487,
            51.3436
          ],
          [
            -2.4792,
            51.3604
          ]
        ]
      },
      "properties": {
        "strategic_network_feature_type": "quiet-lane-opportunity",
        "corridor_name": "Cam Brook villages quiet-lane reach",
        "treatment_intent": "20mph-quiet-lane-priority",
        "satn_stage": "stage-1-supporting-opportunity",
        "source_layer": "weca-strategic-network-synthesis",
        "status": "prototype-supporting-network",
        "provenance_notes": "Prototype supporting corridor for village reach, parallel greenway logic, walking, wheeling, cycling and equestrian access.",
        "uncertainty_notes": "Not a substitute for the core inter-urban route unless audited as a viable, attractive and safe strategic alternative.",
        "feeder_to_core_link_ids": [
          "core-bath-radstock-msn-a367"
        ]
      }
    },
    {
      "type": "Feature",
      "id": "quiet-bath-south-villages",
      "geometry": {
        "type": "LineString",
        "coordinates": [
          [
            -2.3657,
            51.3705
          ],
          [
            -2.3604,
            51.3518
          ],
          [
            -2.3747,
            51.3232
          ],
          [
            -2.4154,
            51.3003
          ]
        ]
      },
      "properties": {
        "strategic_network_feature_type": "quiet-lane-opportunity",
        "corridor_name": "Bath southern villages quiet-lane reach",
        "treatment_intent": "20mph-quiet-lane-priority",
        "satn_stage": "stage-1-supporting-opportunity",
        "source_layer": "weca-strategic-network-synthesis",
        "status": "prototype-supporting-network",
        "provenance_notes": "Prototype supporting corridor for village reach, parallel greenway logic, walking, wheeling, cycling and equestrian access.",
        "uncertainty_notes": "Not a substitute for the core inter-urban route unless audited as a viable, attractive and safe strategic alternative.",
        "feeder_to_core_link_ids": [
          "core-bath-radstock-msn-a367",
          "gateway-bath-wells-a39"
        ]
      }
    },
    {
      "type": "Feature",
      "id": "quiet-north-somerset-villages",
      "geometry": {
        "type": "LineString",
        "coordinates": [
          [
            -2.7381,
            51.4144
          ],
          [
            -2.7843,
            51.3902
          ],
          [
            -2.8106,
            51.3715
          ],
          [
            -2.8235,
            51.3885
          ],
          [
            -2.8034,
            51.4469
          ]
        ]
      },
      "properties": {
        "strategic_network_feature_type": "quiet-lane-opportunity",
        "corridor_name": "North Somerset villages quiet-lane reach",
        "treatment_intent": "20mph-quiet-lane-priority",
        "satn_stage": "stage-1-supporting-opportunity",
        "source_layer": "weca-strategic-network-synthesis",
        "status": "prototype-supporting-network",
        "provenance_notes": "Prototype supporting corridor for village reach, parallel greenway logic, walking, wheeling, cycling and equestrian access.",
        "uncertainty_notes": "Not a substitute for the core inter-urban route unless audited as a viable, attractive and safe strategic alternative.",
        "feeder_to_core_link_ids": [
          "core-bristol-weston-a370",
          "core-portishead-clevedon-weston"
        ]
      }
    },
    {
      "type": "Feature",
      "id": "quiet-south-glos-villages",
      "geometry": {
        "type": "LineString",
        "coordinates": [
          [
            -2.4774,
            51.4932
          ],
          [
            -2.4346,
            51.4853
          ],
          [
            -2.4357,
            51.5185
          ],
          [
            -2.416,
            51.541
          ]
        ]
      },
      "properties": {
        "strategic_network_feature_type": "quiet-lane-opportunity",
        "corridor_name": "South Gloucestershire villages quiet-lane reach",
        "treatment_intent": "20mph-quiet-lane-priority",
        "satn_stage": "stage-1-supporting-opportunity",
        "source_layer": "weca-strategic-network-synthesis",
        "status": "prototype-supporting-network",
        "provenance_notes": "Prototype supporting corridor for village reach, parallel greenway logic, walking, wheeling, cycling and equestrian access.",
        "uncertainty_notes": "Not a substitute for the core inter-urban route unless audited as a viable, attractive and safe strategic alternative.",
        "feeder_to_core_link_ids": [
          "core-bristol-yate-a432"
        ]
      }
    },
    {
      "type": "Feature",
      "id": "greenway-bristol-bath-railway-path",
      "geometry": {
        "type": "LineString",
        "coordinates": [
          [
            -2.5879,
            51.4545
          ],
          [
            -2.499,
            51.4871
          ],
          [
            -2.4755,
            51.4418
          ],
          [
            -2.4585,
            51.4072
          ],
          [
            -2.3591,
            51.3811
          ]
        ]
      },
      "properties": {
        "strategic_network_feature_type": "quiet-lane-opportunity",
        "corridor_name": "Bristol and Bath Railway Path parallel strategic opportunity",
        "treatment_intent": "protect-upgrade-greenway",
        "satn_stage": "stage-1-supporting-opportunity",
        "source_layer": "weca-strategic-network-synthesis",
        "status": "prototype-supporting-network",
        "provenance_notes": "Prototype supporting corridor for village reach, parallel greenway logic, walking, wheeling, cycling and equestrian access.",
        "uncertainty_notes": "Not a substitute for the core inter-urban route unless audited as a viable, attractive and safe strategic alternative.",
        "parallel_to_core_link_ids": [
          "core-bristol-bath-a4"
        ]
      }
    },
    {
      "type": "Feature",
      "id": "greenway-two-tunnels-colliers-way",
      "geometry": {
        "type": "LineString",
        "coordinates": [
          [
            -2.3591,
            51.3811
          ],
          [
            -2.327,
            51.3565
          ],
          [
            -2.3034,
            51.3427
          ],
          [
            -2.4519,
            51.291
          ],
          [
            -2.4846,
            51.2855
          ]
        ]
      },
      "properties": {
        "strategic_network_feature_type": "quiet-lane-opportunity",
        "corridor_name": "Two Tunnels and Colliers Way parallel strategic opportunity",
        "treatment_intent": "protect-upgrade-greenway",
        "satn_stage": "stage-1-supporting-opportunity",
        "source_layer": "weca-strategic-network-synthesis",
        "status": "prototype-supporting-network",
        "provenance_notes": "Prototype supporting corridor for village reach, parallel greenway logic, walking, wheeling, cycling and equestrian access.",
        "uncertainty_notes": "Not a substitute for the core inter-urban route unless audited as a viable, attractive and safe strategic alternative.",
        "parallel_to_core_link_ids": [
          "core-bath-radstock-msn-a367"
        ]
      }
    },
    {
      "type": "Feature",
      "id": "greenway-strawberry-line",
      "geometry": {
        "type": "LineString",
        "coordinates": [
          [
            -2.977,
            51.346
          ],
          [
            -2.8671,
            51.3281
          ],
          [
            -2.8312,
            51.3124
          ],
          [
            -2.8235,
            51.3885
          ]
        ]
      },
      "properties": {
        "strategic_network_feature_type": "quiet-lane-opportunity",
        "corridor_name": "Strawberry Line parallel strategic opportunity",
        "treatment_intent": "protect-upgrade-greenway",
        "satn_stage": "stage-1-supporting-opportunity",
        "source_layer": "weca-strategic-network-synthesis",
        "status": "prototype-supporting-network",
        "provenance_notes": "Prototype supporting corridor for village reach, parallel greenway logic, walking, wheeling, cycling and equestrian access.",
        "uncertainty_notes": "Not a substitute for the core inter-urban route unless audited as a viable, attractive and safe strategic alternative.",
        "parallel_to_core_link_ids": [
          "core-bristol-weston-a370"
        ]
      }
    },
    {
      "type": "Feature",
      "id": "greenway-festival-way",
      "geometry": {
        "type": "LineString",
        "coordinates": [
          [
            -2.5879,
            51.4545
          ],
          [
            -2.6608,
            51.4298
          ],
          [
            -2.7381,
            51.4144
          ],
          [
            -2.8235,
            51.3885
          ]
        ]
      },
      "properties": {
        "strategic_network_feature_type": "quiet-lane-opportunity",
        "corridor_name": "Festival Way parallel strategic opportunity",
        "treatment_intent": "protect-upgrade-greenway",
        "satn_stage": "stage-1-supporting-opportunity",
        "source_layer": "weca-strategic-network-synthesis",
        "status": "prototype-supporting-network",
        "provenance_notes": "Prototype supporting corridor for village reach, parallel greenway logic, walking, wheeling, cycling and equestrian access.",
        "uncertainty_notes": "Not a substitute for the core inter-urban route unless audited as a viable, attractive and safe strategic alternative.",
        "parallel_to_core_link_ids": [
          "core-bristol-weston-a370"
        ]
      }
    }
  ]
}
